[{"OBJECT_NAME":"ONEWEB-0561","OBJECT_ID":"2023-068A","EPOCH":"2025-10-27T07:42:49.675392","MEAN_MOTION":13.20771051,"ECCENTRICITY":0.00014979,"INCLINATION":87.9188,"RA_OF_ASC_NODE":320.8956,"ARG_OF_PERICENTER":104.2571,"MEAN_ANOMALY":255.8729,"EPHEMERIS_TYPE":0,"CLASSIFICATION_TYPE":"U","NORAD_CAT_ID":56710,"ELEMENT_SET_NO":999,"REV_AT_EPOCH":11876,"BSTAR":0.00036549349,"MEAN_MOTION_DOT":1.62e-6,"MEAN_MOTION_DDOT":0},{"OBJECT_NAME":"ONEWEB-0668","OBJECT_ID":"2023-068B","EPOCH":"2025-10-27T00:00:02.000160","MEAN_MOTION":13.18170066,"ECCENTRICITY":0.00022229,"INCLINATION":87.9012,"RA_OF_ASC_NODE":275.2099,"ARG_OF_PERICENTER":74.2426,"MEAN_ANOMALY":343.7509,"EPHEMERIS_TYPE":0,"CLASSIFICATION_TYPE":"U","NORAD_CAT_ID":56711,"ELEMENT_SET_NO":999,"REV_AT_EPOCH":512,"BSTAR":-0.076015831,"MEAN_MOTION_DOT":-0.00029633,"MEAN_MOTION_DDOT":0},{"OBJECT_NAME":"ONEWEB-0676","OBJECT_ID":"2023-068C","EPOCH":"2025-10-27T04:51:06.887520","MEAN_MOTION":13.16596817,"ECCENTRICITY":0.00017412,"INCLINATION":87.8987,"RA_OF_ASC_NODE":275.187,"ARG_OF_PERICENTER":86.9173,"MEAN_ANOMALY":273.2157,"EPHEMERIS_TYPE":0,"CLASSIFICATION_TYPE":"U","NORAD_CAT_ID":56712,"ELEMENT_SET_NO":999,"REV_AT_EPOCH":12104,"BSTAR":5.9787461e-5,"MEAN_MOTION_DOT":3.6e-7,"MEAN_MOTION_DDOT":0},{"OBJECT_NAME":"ONEWEB-0677","OBJECT_ID":"2023-068D","EPOCH":"2025-10-27T00:10:33.787200","MEAN_MOTION":13.20771722,"ECCENTRICITY":0.00017138,"INCLINATION":87.9201,"RA_OF_ASC_NODE":320.9367,"ARG_OF_PERICENTER":90.0465,"MEAN_ANOMALY":270.0864,"EPHEMERIS_TYPE":0,"CLASSIFICATION_TYPE":"U","NORAD_CAT_ID":56713,"ELEMENT_SET_NO":999,"REV_AT_EPOCH":11902,"BSTAR":0.00031155759,"MEAN_MOTION_DOT":1.4e-6,"MEAN_MOTION_DDOT":0},{"OBJECT_NAME":"ONEWEB-0678","OBJECT_ID":"2023-068E","EPOCH":"2025-10-27T06:32:20.500800","MEAN_MOTION":13.15549085,"ECCENTRICITY":0.00018914,"INCLINATION":87.8965,"RA_OF_ASC_NODE":305.6639,"ARG_OF_PERICENTER":101.5471,"MEAN_ANOMALY":258.5872,"EPHEMERIS_TYPE":0,"CLASSIFICATION_TYPE":"U","NORAD_CAT_ID":56714,"ELEMENT_SET_NO":999,"REV_AT_EPOCH":11866,"BSTAR":-0.0004461306,"MEAN_MOTION_DOT":-1.55e-6,"MEAN_MOTION_DDOT":0},{"OBJECT_NAME":"ONEWEB-0679","OBJECT_ID":"2023-068F","EPOCH":"2025-10-27T03:52:02.356032","MEAN_MOTION":13.16594585,"ECCENTRICITY":0.00017053,"INCLINATION":87.8982,"RA_OF_ASC_NODE":275.1818,"ARG_OF_PERICENTER":68.9743,"MEAN_ANOMALY":291.157,"EPHEMERIS_TYPE":0,"CLASSIFICATION_TYPE":"U","NORAD_CAT_ID":56715,"ELEMENT_SET_NO":999,"REV_AT_EPOCH":12106,"BSTAR":0.00024761352,"MEAN_MOTION_DOT":1.08e-6,"MEAN_MOTION_DDOT":0},{"OBJECT_NAME":"ONEWEB-0680","OBJECT_ID":"2023-068G","EPOCH":"2025-10-27T06:06:30.018240","MEAN_MOTION":13.21827426,"ECCENTRICITY":0.00021135,"INCLINATION":87.9172,"RA_OF_ASC_NODE":290.4317,"ARG_OF_PERICENTER":71.4232,"MEAN_ANOMALY":288.7132,"EPHEMERIS_TYPE":0,"CLASSIFICATION_TYPE":"U","NORAD_CAT_ID":56716,"ELEMENT_SET_NO":999,"REV_AT_EPOCH":12032,"BSTAR":0.00012726437,"MEAN_MOTION_DOT":6.6e-7,"MEAN_MOTION_DDOT":0},{"OBJECT_NAME":"ONEWEB-0681","OBJECT_ID":"2023-068H","EPOCH":"2025-10-27T00:09:54.355104","MEAN_MOTION":13.21825168,"ECCENTRICITY":8.033e-5,"INCLINATION":87.9166,"RA_OF_ASC_NODE":290.4992,"ARG_OF_PERICENTER":89.6316,"MEAN_ANOMALY":270.491,"EPHEMERIS_TYPE":0,"CLASSIFICATION_TYPE":"U","NORAD_CAT_ID":56717,"ELEMENT_SET_NO":999,"REV_AT_EPOCH":12028,"BSTAR":0.00053957443,"MEAN_MOTION_DOT":2.36e-6,"MEAN_MOTION_DDOT":0},{"OBJECT_NAME":"ONEWEB-0682","OBJECT_ID":"2023-068J","EPOCH":"2025-10-26T23:51:54.161568","MEAN_MOTION":13.15547706,"ECCENTRICITY":0.00019631,"INCLINATION":87.8957,"RA_OF_ASC_NODE":305.7368,"ARG_OF_PERICENTER":76.8005,"MEAN_ANOMALY":283.3344,"EPHEMERIS_TYPE":0,"CLASSIFICATION_TYPE":"U","NORAD_CAT_ID":56718,"ELEMENT_SET_NO":999,"REV_AT_EPOCH":11879,"BSTAR":0.00032191421,"MEAN_MOTION_DOT":1.34e-6,"MEAN_MOTION_DDOT":0},{"OBJECT_NAME":"ONEWEB-0683","OBJECT_ID":"2023-068K","EPOCH":"2025-10-27T07:40:48.262656","MEAN_MOTION":13.15548483,"ECCENTRICITY":0.00019401,"INCLINATION":87.8965,"RA_OF_ASC_NODE":305.6524,"ARG_OF_PERICENTER":83.5884,"MEAN_ANOMALY":276.5468,"EPHEMERIS_TYPE":0,"CLASSIFICATION_TYPE":"U","NORAD_CAT_ID":56719,"ELEMENT_SET_NO":999,"REV_AT_EPOCH":11880,"BSTAR":0.00049908783,"MEAN_MOTION_DOT":2.01e-6,"MEAN_MOTION_DDOT":0},{"OBJECT_NAME":"ONEWEB-0684","OBJECT_ID":"2023-068L","EPOCH":"2025-10-27T06:02:41.285472","MEAN_MOTION":13.15548604,"ECCENTRICITY":0.0002968,"INCLINATION":87.8964,"RA_OF_ASC_NODE":305.6614,"ARG_OF_PERICENTER":113.1241,"MEAN_ANOMALY":247.0203,"EPHEMERIS_TYPE":0,"CLASSIFICATION_TYPE":"U","NORAD_CAT_ID":56720,"ELEMENT_SET_NO":999,"REV_AT_EPOCH":11862,"BSTAR":0.00035552711,"MEAN_MOTION_DOT":1.47e-6,"MEAN_MOTION_DDOT":0},{"OBJECT_NAME":"ONEWEB-0686","OBJECT_ID":"2023-068M","EPOCH":"2025-10-27T03:51:50.114016","MEAN_MOTION":13.16595308,"ECCENTRICITY":0.00022086,"INCLINATION":87.8979,"RA_OF_ASC_NODE":275.2145,"ARG_OF_PERICENTER":82.7099,"MEAN_ANOMALY":277.4283,"EPHEMERIS_TYPE":0,"CLASSIFICATION_TYPE":"U","NORAD_CAT_ID":56721,"ELEMENT_SET_NO":999,"REV_AT_EPOCH":12105,"BSTAR":0.00022356967,"MEAN_MOTION_DOT":9.8e-7,"MEAN_MOTION_DDOT":0},{"OBJECT_NAME":"ONEWEB-0694","OBJECT_ID":"2023-068N","EPOCH":"2025-10-27T04:53:22.446528","MEAN_MOTION":13.16593344,"ECCENTRICITY":0.00021341,"INCLINATION":87.8996,"RA_OF_ASC_NODE":275.1434,"ARG_OF_PERICENTER":73.2957,"MEAN_ANOMALY":286.8408,"EPHEMERIS_TYPE":0,"CLASSIFICATION_TYPE":"U","NORAD_CAT_ID":56722,"ELEMENT_SET_NO":999,"REV_AT_EPOCH":12111,"BSTAR":7.0975705e-5,"MEAN_MOTION_DOT":4.0e-7,"MEAN_MOTION_DDOT":0},{"OBJECT_NAME":"ONEWEB-0696","OBJECT_ID":"2023-068P","EPOCH":"2025-10-27T06:50:37.061088","MEAN_MOTION":13.15529561,"ECCENTRICITY":0.00018093,"INCLINATION":87.8979,"RA_OF_ASC_NODE":305.7123,"ARG_OF_PERICENTER":100.8229,"MEAN_ANOMALY":259.3105,"EPHEMERIS_TYPE":0,"CLASSIFICATION_TYPE":"U","NORAD_CAT_ID":56723,"ELEMENT_SET_NO":999,"REV_AT_EPOCH":11874,"BSTAR":-0.0052856412,"MEAN_MOTION_DOT":-1.976e-5,"MEAN_MOTION_DDOT":0},{"OBJECT_NAME":"ONEWEB-0703","OBJECT_ID":"2023-068Q","EPOCH":"2025-10-27T07:04:15.988800","MEAN_MOTION":13.15547293,"ECCENTRICITY":0.00017935,"INCLINATION":87.8954,"RA_OF_ASC_NODE":305.6915,"ARG_OF_PERICENTER":125.269,"MEAN_ANOMALY":234.8609,"EPHEMERIS_TYPE":0,"CLASSIFICATION_TYPE":"U","NORAD_CAT_ID":56724,"ELEMENT_SET_NO":999,"REV_AT_EPOCH":11863,"BSTAR":-7.7838667e-5,"MEAN_MOTION_DOT":-1.6e-7,"MEAN_MOTION_DDOT":0},{"OBJECT_NAME":"ONEWEB-0721","OBJECT_ID":"2023-068R","EPOCH":"2025-10-27T00:46:35.791680","MEAN_MOTION":13.22449737,"ECCENTRICITY":0.00015037,"INCLINATION":86.6826,"RA_OF_ASC_NODE":159.8751,"ARG_OF_PERICENTER":78.4378,"MEAN_ANOMALY":281.6924,"EPHEMERIS_TYPE":0,"CLASSIFICATION_TYPE":"U","NORAD_CAT_ID":56725,"ELEMENT_SET_NO":999,"REV_AT_EPOCH":12712,"BSTAR":9.9374068e-5,"MEAN_MOTION_DOT":5.6e-7,"MEAN_MOTION_DDOT":0}]
