ONEWEB-0561             
1 56710U 23068A   25300.32140828  .00000162  00000+0  36549-3 0  9994
2 56710  87.9188 320.8956 0001497 104.2571 255.8729 13.20771051118764
ONEWEB-0668             
1 56711U 23068B   25300.00002315 -.00029633  00000+0 -76016-1 0  9995
2 56711  87.9012 275.2099 0002222  74.2426 343.7509 13.18170066  5128
ONEWEB-0676             
1 56712U 23068C   25300.20216305  .00000036  00000+0  59787-4 0  9997
2 56712  87.8987 275.1870 0001741  86.9173 273.2157 13.16596817121049
ONEWEB-0677             
1 56713U 23068D   25300.00733550  .00000140  00000+0  31156-3 0  9997
2 56713  87.9201 320.9367 0001713  90.0465 270.0864 13.20771722119029
ONEWEB-0678             
1 56714U 23068E   25300.27245950 -.00000155  00000+0 -44613-3 0  9999
2 56714  87.8965 305.6639 0001891 101.5471 258.5872 13.15549085118668
ONEWEB-0679             
1 56715U 23068F   25300.16113838  .00000108  00000+0  24761-3 0  9995
2 56715  87.8982 275.1818 0001705  68.9743 291.1570 13.16594585121062
ONEWEB-0680             
1 56716U 23068G   25300.25451410  .00000066  00000+0  12726-3 0  9998
2 56716  87.9172 290.4317 0002113  71.4232 288.7132 13.21827426120328
ONEWEB-0681             
1 56717U 23068H   25300.00687911  .00000236  00000+0  53957-3 0  9999
2 56717  87.9166 290.4992 0000803  89.6316 270.4910 13.21825168120287
ONEWEB-0682             
1 56718U 23068J   25299.99437687  .00000134  00000+0  32191-3 0  9992
2 56718  87.8957 305.7368 0001963  76.8005 283.3344 13.15547706118792
ONEWEB-0683             
1 56719U 23068K   25300.32000304  .00000201  00000+0  49909-3 0  9995
2 56719  87.8965 305.6524 0001940  83.5884 276.5468 13.15548483118806
ONEWEB-0684             
1 56720U 23068L   25300.25186673  .00000147  00000+0  35553-3 0  9992
2 56720  87.8964 305.6614 0002968 113.1241 247.0203 13.15548604118620
ONEWEB-0686             
1 56721U 23068M   25300.16099669  .00000098  00000+0  22357-3 0  9994
2 56721  87.8979 275.2145 0002208  82.7099 277.4283 13.16595308121057
ONEWEB-0694             
1 56722U 23068N   25300.20373202  .00000040  00000+0  70976-4 0  9996
2 56722  87.8996 275.1434 0002134  73.2957 286.8408 13.16593344121111
ONEWEB-0696             
1 56723U 23068P   25300.28515117 -.00001976  00000+0 -52856-2 0  9994
2 56723  87.8979 305.7123 0001809 100.8229 259.3105 13.15529561118748
ONEWEB-0703             
1 56724U 23068Q   25300.29462950 -.00000016  00000+0 -77839-4 0  9996
2 56724  87.8954 305.6915 0001793 125.2690 234.8609 13.15547293118632
ONEWEB-0721             
1 56725U 23068R   25300.03235870  .00000056  00000+0  99374-4 0  9998
2 56725  86.6826 159.8751 0001503  78.4378 281.6924 13.22449737127122
